NORAD_CAT_ID,OBJECT_NAME,OBJECT_TYPE,EPOCH,MEAN_MOTION,ECCENTRICITY,INCLINATION,RA_OF_ASC_NODE,ARG_OF_PERICENTER,MEAN_ANOMALY,BSTAR,MEAN_MOTION_DOT,MEAN_MOTION_DDOT,TLE_LINE0,TLE_LINE1,TLE_LINE2,SEMIMAJOR_AXIS,PERIOD,APOGEE,PERIGEE,DECAYED
51972.0,STARLINK-3671,PAYLOAD,2022-03-27 06:00:00,15.73114047,0.0001549,53.2177,52.2228,79.2603,206.6848,0.00043927,0.00061252,0.0,0 STARLINK-3671,1 51972U 22025S   22086.25001157  .00061252  00000-0  43927-3 0  9998,2 51972  53.2177  52.2228 0001549  79.2603 206.6848 15.73114047  4065,6728.14,91.538,351.047,348.963,0.0
51972.0,STARLINK-3671,PAYLOAD,2022-03-27 14:00:01,15.73191508,0.0001437,53.2178,50.5721,84.8763,289.9401,0.00024579,0.00034002,0.0,0 STARLINK-3671,1 51972U 22025S   22086.58334491  .00034002  00000-0  24579-3 0  9999,2 51972  53.2178  50.5721 0001437  84.8763 289.9401 15.73191508  4112,6727.919,91.534,350.751,348.8180000000001,0.0
51972.0,STARLINK-3671,PAYLOAD,2022-03-27 22:00:01,15.73219746,0.0001495,53.2182,48.9216,91.4282,12.372,0.00051604,0.00072492,0.0,0 STARLINK-3671,1 51972U 22025S   22086.91668981  .00072492  00000-0  51604-3 0  9994,2 51972  53.2182  48.9216 0001495  91.4282  12.3720 15.73219746  3117,6727.839,91.532,350.71,348.6980000000001,0.0
51972.0,STARLINK-3671,PAYLOAD,2022-03-28 08:00:01,15.73278428,0.0001233,53.2181,46.8618,79.881,225.1192,-0.00034493,-0.0004891,0.0,0 STARLINK-3671,1 51972U 22025S   22087.33334491 -.00048910  00000-0 -34493-3 0  9994,2 51972  53.2181  46.8618 0001233  79.8810 225.1192 15.73278428  4239,6727.672,91.529,350.366,348.707,0.0
51972.0,STARLINK-3671,PAYLOAD,2022-03-28 14:00:01,15.73253818,0.0001058,53.2179,45.6228,88.4569,193.375,-0.00013489,-0.0001955,0.0,0 STARLINK-3671,1 51972U 22025S   22087.58335648 -.00019550  00000-0 -13489-3 0  9996,2 51972  53.2179  45.6228 0001058  88.4569 193.3750 15.73253818  3222,6727.7419999999975,91.53,350.319,348.895,0.0
51972.0,STARLINK-3671,PAYLOAD,2022-03-28 22:00:00,15.73245548,0.0001126,53.2181,43.9728,96.7594,273.9753,-0.00026844,-0.00038195,0.0,0 STARLINK-3671,1 51972U 22025S   22087.91667824 -.00038195  00000-0 -26844-3 0  9992,2 51972  53.2181  43.9728 0001126  96.7594 273.9753 15.73245548  3271,6727.765,91.531,350.38800000000015,348.87300000000016,0.0
51972.0,STARLINK-3671,PAYLOAD,2022-03-29 04:00:00,15.73240886,0.0001184,53.2179,42.7373,87.9039,259.5634,-0.0006127,-0.00085884,0.0,0 STARLINK-3671,1 51972U 22025S   22088.16667824 -.00085884  00000-0 -61270-3 0  9999,2 51972  53.2179  42.7373 0001184  87.9039 259.5634 15.73240886  4360,6727.779,91.531,350.44,348.847,0.0
51972.0,STARLINK-3671,PAYLOAD,2022-03-29 14:00:01,15.73146781,0.0001368,53.2183,40.6741,92.3195,96.305,-0.00013125,-0.00018956,0.0,0 STARLINK-3671,1 51972U 22025S   22088.58334491 -.00018956  00000-0 -13125-3 0  9998,2 51972  53.2183  40.6741 0001368  92.3195  96.3050 15.73146781  3387,6728.047,91.536,350.832,348.992,0.0
51972.0,STARLINK-3671,PAYLOAD,2022-03-29 22:00:00,15.73155882,0.0001523,53.2187,39.0244,98.3553,179.1174,0.00045954,0.00064246,0.0,0 STARLINK-3671,1 51972U 22025S   22088.91667824  .00064246  00000-0  45954-3 0  9990,2 51972  53.2187  39.0244 0001523  98.3553 179.1174 15.73155882  3433,6728.021,91.536,350.911,348.861,0.0
51972.0,STARLINK-3671,PAYLOAD,2022-03-30 12:00:00,15.73262897,0.0001217,53.2184,36.1388,96.4003,246.6816,-0.00052513,-0.00073871,0.0,0 STARLINK-3671,1 51972U 22025S   22089.50001157 -.00073871  00000-0 -52513-3 0  9992,2 51972  53.2184  36.1388 0001217  96.4003 246.6816 15.73262897  4570,6727.715999999999,91.53,350.4,348.76199999999994,0.0
51972.0,STARLINK-3671,PAYLOAD,2022-03-30 14:00:01,15.73230326,0.0001147,53.2186,35.7258,101.5165,353.886,-0.00016857,-0.0002424,0.0,0 STARLINK-3671,1 51972U 22025S   22089.58335648 -.00024240  00000-0 -16857-3 0  9992,2 51972  53.2186  35.7258 0001147 101.5165 353.8860 15.73230326  3539,6727.809,91.531,350.445,348.902,0.0
51972.0,STARLINK-3671,PAYLOAD,2022-03-30 22:00:00,15.73210677,0.0001083,53.2187,34.0765,108.8404,75.4422,-1.6693e-05,-2.963e-05,0.0,0 STARLINK-3671,1 51972U 22025S   22089.91667824 -.00002963  00000-0 -16693-4 0  9990,2 51972  53.2187  34.0765 0001083 108.8404  75.4422 15.73210677  3594,6727.865,91.533,350.458,349.001,0.0
51972.0,STARLINK-3671,PAYLOAD,2022-03-31 06:00:00,15.73184435,0.0001123,53.2186,32.4289,94.8909,178.3447,0.00029017,0.00040271,0.0,0 STARLINK-3671,1 51972U 22025S   22090.25001157  .00040271  00000-0  29017-3 0  9995,2 51972  53.2186  32.4289 0001123  94.8909 178.3447 15.73184435  4699,6727.94,91.534,350.56,349.0490000000001,0.0
51972.0,STARLINK-3671,PAYLOAD,2022-03-31 14:00:01,15.73181361,0.0001288,53.2188,30.7776,107.3856,254.7869,0.00035268,0.00049126,0.0,0 STARLINK-3671,1 51972U 22025S   22090.58334491  .00049126  00000-0  35268-3 0  9994,2 51972  53.2188  30.7776 0001288 107.3856 254.7869 15.73181361  3697,6727.948,91.534,350.68,348.94699999999995,0.0
51972.0,STARLINK-3671,PAYLOAD,2022-03-31 22:00:00,15.73276887,0.0001365,53.2192,29.1282,108.5832,342.5165,-3.7039e-05,-5.832e-05,0.0,0 STARLINK-3671,1 51972U 22025S   22090.91667824 -.00005832  00000-0 -37039-4 0  9997,2 51972  53.2192  29.1282 0001365 108.5832 342.5165 15.73276887  3715,6727.676,91.529,350.459,348.62300000000016,0.0
51972.0,STARLINK-3671,PAYLOAD,2022-04-01 08:00:01,15.73272656,0.0001121,53.2189,27.0678,100.9507,191.4293,-0.00034185,-0.00048468,0.0,0 STARLINK-3671,1 51972U 22025S   22091.33334491 -.00048468  00000-0 -34185-3 0  9995,2 51972  53.2189  27.0678 0001121 100.9507 191.4293 15.73272656  4862,6727.688,91.529,350.307,348.7990000000001,0.0
51972.0,STARLINK-3671,PAYLOAD,2022-04-01 14:00:01,15.73234262,0.0001262999999999,53.2191,25.8291,110.0025,159.1175,-0.00052896,-0.00074311,0.0,0 STARLINK-3671,1 51972U 22025S   22091.58334491 -.00074311  00000-0 -52896-3 0  9997,2 51972  53.2191  25.8291 0001263 110.0025 159.1175 15.73234262  4902,6727.797,91.531,350.51199999999994,348.81300000000016,0.0
51972.0,STARLINK-3671,PAYLOAD,2022-04-01 22:00:00,15.73201024,0.0001385999999999,53.2191,24.1801,110.7527,247.3002,-0.00068188,-0.00095246,0.0,0 STARLINK-3671,1 51972U 22025S   22091.91667824 -.00095246  00000-0 -68188-3 0  9994,2 51972  53.2191  24.1801 0001386 110.7527 247.3002 15.73201024  3695,6727.892,91.533,350.69,348.825,0.0
51972.0,STARLINK-3671,PAYLOAD,2022-04-02 14:00:01,15.73170899,0.0001202,53.2189,20.8812,119.6613,56.2335,0.00049461,0.00069282,0.0,0 STARLINK-3671,1 51972U 22025S   22092.58335648  .00069282  00000-0  49461-3 0  9996,2 51972  53.2189  20.8812 0001202 119.6613  56.2335 15.73170899  5051,6727.978,91.535,350.652,349.034,0.0
51972.0,STARLINK-3671,PAYLOAD,2022-04-02 22:00:01,15.73236543,0.0001097,53.2192,19.2323,124.0708,140.7434,-0.00052159,-0.00073299,0.0,0 STARLINK-3671,1 51972U 22025S   22092.91668981 -.00073299  00000-0 -52159-3 0  9995,2 51972  53.2192  19.2323 0001097 124.0708 140.7434 15.73236543  3710,6727.791,91.531,350.394,348.918,0.0
51972.0,STARLINK-3671,PAYLOAD,2022-04-03 04:00:00,15.73161844,9.65e-05,53.2193,17.9968,110.3351,131.1157,-5.2682e-05,-7.993e-05,0.0,0 STARLINK-3671,1 51972U 22025S   22093.16667824 -.00007993  00000-0 -52682-4 0  9998,2 51972  53.2193  17.9968 0000965 110.3351 131.1157 15.73161844  5153,6728.004,91.535,350.51800000000014,349.22,0.0
51972.0,STARLINK-3671,PAYLOAD,2022-04-03 22:00:00,15.73130906,0.0001419,53.2189,14.2848,113.2228,58.164,-7.1946e-05,-0.00010674,0.0,0 STARLINK-3671,1 51972U 22025S   22093.91667824 -.00010674  00000-0 -71946-4 0  9995,2 51972  53.2189  14.2848 0001419 113.2228  58.1640 15.73130906  5267,6728.092,91.537,350.912,349.00199999999984,0.0
51972.0,STARLINK-3671,PAYLOAD,2022-04-04 14:00:01,15.73169294,0.0001431999999999,53.2185,10.9856,119.5722,229.5423,0.0008554,0.00121013,0.0,0 STARLINK-3671,1 51972U 22025S   22094.58334491  .00121013  00000-0  85540-3 0  9992,2 51972  53.2185  10.9856 0001432 119.5722 229.5423 15.73169294  5375,6727.983,91.535,350.811,348.884,0.0
51972.0,STARLINK-3671,PAYLOAD,2022-04-04 22:00:00,15.73287363,0.0001395,53.2187,9.337,118.6971,319.3565,8.950700000000001e-05,0.00012006,0.0,0 STARLINK-3671,1 51972U 22025S   22094.91667824  .00012006  00000-0  89507-4 0  9997,2 51972  53.2187   9.3370 0001395 118.6971 319.3565 15.73287363  3702,6727.646,91.528,350.45,348.5730000000001,0.0
51972.0,STARLINK-3671,PAYLOAD,2022-04-05 06:00:00,15.73326264,0.0001315999999999,53.2179,7.6835,112.2847,54.8057,-0.00081676,-0.00114317,0.0,0 STARLINK-3671,1 51972U 22025S   22095.25001157 -.00114317  00000-0 -81676-3 0  9994,2 51972  53.2179   7.6835 0001316 112.2847  54.8057 15.73326264  5472,6727.535,91.526,350.286,348.515,0.0
51972.0,STARLINK-3671,PAYLOAD,2022-04-05 14:00:01,15.73206344,0.0001472,53.2176,6.0215,117.1021,138.9177,-1.515e-05,-2.746e-05,0.0,0 STARLINK-3671,1 51972U 22025S   22095.58335648 -.00002746  00000-0 -15150-4 0  9992,2 51972  53.2176   6.0215 0001472 117.1021 138.9177 15.73206344  3702,6727.877,91.533,350.732,348.75199999999984,0.0
51972.0,STARLINK-3671,PAYLOAD,2022-04-05 16:00:00,15.73204109,0.0001512,53.2174,5.6087,116.7028,251.4868,-1.9341e-06,-8.92e-06,0.0,0 STARLINK-3671,1 51972U 22025S   22095.66667824 -.00000892  00000-0 -19341-5 0  9992,2 51972  53.2174   5.6087 0001512 116.7028 251.4868 15.73204109  5548,6727.8830000000025,91.533,350.766,348.731,0.0
51972.0,STARLINK-3671,PAYLOAD,2022-04-05 22:00:00,15.73347362,0.0001190999999999,53.218,4.3801,127.2802,217.7697,-0.0037056,-0.00494351,0.0,0 STARLINK-3671,1 51972U 22025S   22095.91667824 -.00494351  00000-0 -37056-2 0  9997,2 51972  53.2180   4.3801 0001191 127.2802 217.7697 15.73347362  5583,6727.475,91.525,350.141,348.539,0.0
51972.0,STARLINK-3671,PAYLOAD,2022-04-06 06:00:02,15.73154109,0.0001095,53.2176,2.7401,116.0529,318.0015,0.00066158,0.00093078,0.0,0 STARLINK-3671,1 51972U 22025S   22096.25002315  .00093078  00000-0  66158-3 0  9998,2 51972  53.2176   2.7401 0001095 116.0529 318.0015 15.73154109  5631,6728.026,91.536,350.62800000000016,349.154,0.0
